[{"OBJECT_NAME":"ONEWEB-0035","OBJECT_ID":"2020-008N","EPOCH":"2026-02-08T02:46:40.272096","MEAN_MOTION":13.10374532,"ECCENTRICITY":0.00018343,"INCLINATION":87.8756,"RA_OF_ASC_NODE":62.0001,"ARG_OF_PERICENTER":95.8302,"MEAN_ANOMALY":264.3035,"EPHEMERIS_TYPE":0,"CLASSIFICATION_TYPE":"U","NORAD_CAT_ID":45143,"ELEMENT_SET_NO":999,"REV_AT_EPOCH":29103,"BSTAR":0.0013666758,"MEAN_MOTION_DOT":4.9e-6,"MEAN_MOTION_DDOT":0},{"OBJECT_NAME":"ONEWEB-0036","OBJECT_ID":"2020-008P","EPOCH":"2026-02-08T02:32:18.648096","MEAN_MOTION":13.10375623,"ECCENTRICITY":0.00019647,"INCLINATION":87.8766,"RA_OF_ASC_NODE":61.9655,"ARG_OF_PERICENTER":82.955,"MEAN_ANOMALY":277.1801,"EPHEMERIS_TYPE":0,"CLASSIFICATION_TYPE":"U","NORAD_CAT_ID":45144,"ELEMENT_SET_NO":999,"REV_AT_EPOCH":29146,"BSTAR":1.9061034e-5,"MEAN_MOTION_DOT":1.9e-7,"MEAN_MOTION_DDOT":0},{"OBJECT_NAME":"ONEWEB-0038","OBJECT_ID":"2020-008Q","EPOCH":"2026-02-08T01:47:38.397408","MEAN_MOTION":13.11417521,"ECCENTRICITY":2.045e-5,"INCLINATION":87.8828,"RA_OF_ASC_NODE":46.752,"ARG_OF_PERICENTER":139.42,"MEAN_ANOMALY":220.6943,"EPHEMERIS_TYPE":0,"CLASSIFICATION_TYPE":"U","NORAD_CAT_ID":45145,"ELEMENT_SET_NO":999,"REV_AT_EPOCH":29340,"BSTAR":0.001174778,"MEAN_MOTION_DOT":4.29e-6,"MEAN_MOTION_DDOT":0},{"OBJECT_NAME":"ONEWEB-0039","OBJECT_ID":"2020-008R","EPOCH":"2026-02-08T02:07:12.000576","MEAN_MOTION":13.10372863,"ECCENTRICITY":0.0001718,"INCLINATION":87.8757,"RA_OF_ASC_NODE":61.9865,"ARG_OF_PERICENTER":77.3708,"MEAN_ANOMALY":282.7612,"EPHEMERIS_TYPE":0,"CLASSIFICATION_TYPE":"U","NORAD_CAT_ID":45146,"ELEMENT_SET_NO":999,"REV_AT_EPOCH":29125,"BSTAR":-0.00091508596,"MEAN_MOTION_DOT":-3.07e-6,"MEAN_MOTION_DDOT":0},{"OBJECT_NAME":"ONEWEB-0040","OBJECT_ID":"2020-008S","EPOCH":"2026-02-08T01:57:38.309760","MEAN_MOTION":13.1037197,"ECCENTRICITY":0.00017574,"INCLINATION":87.8747,"RA_OF_ASC_NODE":62.0075,"ARG_OF_PERICENTER":94.1228,"MEAN_ANOMALY":266.01,"EPHEMERIS_TYPE":0,"CLASSIFICATION_TYPE":"U","NORAD_CAT_ID":45147,"ELEMENT_SET_NO":999,"REV_AT_EPOCH":29095,"BSTAR":-0.0016910589,"MEAN_MOTION_DOT":-5.78e-6,"MEAN_MOTION_DDOT":0},{"OBJECT_NAME":"ONEWEB-0043","OBJECT_ID":"2020-008U","EPOCH":"2026-02-08T02:00:01.699200","MEAN_MOTION":13.10372763,"ECCENTRICITY":0.00018212,"INCLINATION":87.875,"RA_OF_ASC_NODE":61.9891,"ARG_OF_PERICENTER":73.3868,"MEAN_ANOMALY":286.7459,"EPHEMERIS_TYPE":0,"CLASSIFICATION_TYPE":"U","NORAD_CAT_ID":45149,"ELEMENT_SET_NO":999,"REV_AT_EPOCH":29127,"BSTAR":-0.0019799777,"MEAN_MOTION_DOT":-6.78e-6,"MEAN_MOTION_DDOT":0},{"OBJECT_NAME":"ONEWEB-0044","OBJECT_ID":"2020-008V","EPOCH":"2026-02-08T02:40:40.810944","MEAN_MOTION":13.10378569,"ECCENTRICITY":0.00017051,"INCLINATION":87.8764,"RA_OF_ASC_NODE":61.9778,"ARG_OF_PERICENTER":87.3619,"MEAN_ANOMALY":272.7704,"EPHEMERIS_TYPE":0,"CLASSIFICATION_TYPE":"U","NORAD_CAT_ID":45150,"ELEMENT_SET_NO":999,"REV_AT_EPOCH":29157,"BSTAR":0.00073200114,"MEAN_MOTION_DOT":2.68e-6,"MEAN_MOTION_DDOT":0},{"OBJECT_NAME":"ONEWEB-0045","OBJECT_ID":"2020-008W","EPOCH":"2026-02-08T01:40:07.129344","MEAN_MOTION":13.11419686,"ECCENTRICITY":0.00017578,"INCLINATION":87.883,"RA_OF_ASC_NODE":46.7397,"ARG_OF_PERICENTER":86.8642,"MEAN_ANOMALY":273.2687,"EPHEMERIS_TYPE":0,"CLASSIFICATION_TYPE":"U","NORAD_CAT_ID":45151,"ELEMENT_SET_NO":999,"REV_AT_EPOCH":29348,"BSTAR":0.000714464,"MEAN_MOTION_DOT":2.66e-6,"MEAN_MOTION_DDOT":0},{"OBJECT_NAME":"ONEWEB-0047","OBJECT_ID":"2020-008X","EPOCH":"2026-02-08T02:31:07.524480","MEAN_MOTION":13.10376449,"ECCENTRICITY":0.0001813,"INCLINATION":87.8755,"RA_OF_ASC_NODE":61.9842,"ARG_OF_PERICENTER":92.2263,"MEAN_ANOMALY":267.9072,"EPHEMERIS_TYPE":0,"CLASSIFICATION_TYPE":"U","NORAD_CAT_ID":45152,"ELEMENT_SET_NO":999,"REV_AT_EPOCH":29129,"BSTAR":1.5153064e-5,"MEAN_MOTION_DOT":1.8e-7,"MEAN_MOTION_DDOT":0},{"OBJECT_NAME":"ONEWEB-0048","OBJECT_ID":"2020-008Y","EPOCH":"2026-02-08T02:23:55.908960","MEAN_MOTION":13.10377124,"ECCENTRICITY":0.0001804,"INCLINATION":87.8754,"RA_OF_ASC_NODE":62.0129,"ARG_OF_PERICENTER":94.6329,"MEAN_ANOMALY":265.5004,"EPHEMERIS_TYPE":0,"CLASSIFICATION_TYPE":"U","NORAD_CAT_ID":45153,"ELEMENT_SET_NO":999,"REV_AT_EPOCH":29090,"BSTAR":-0.0008068236,"MEAN_MOTION_DOT":-2.69e-6,"MEAN_MOTION_DDOT":0},{"OBJECT_NAME":"ONEWEB-0049","OBJECT_ID":"2020-008Z","EPOCH":"2026-02-08T02:28:32.095200","MEAN_MOTION":13.10376686,"ECCENTRICITY":0.00022567,"INCLINATION":87.8751,"RA_OF_ASC_NODE":62.001,"ARG_OF_PERICENTER":86.8162,"MEAN_ANOMALY":273.3224,"EPHEMERIS_TYPE":0,"CLASSIFICATION_TYPE":"U","NORAD_CAT_ID":45154,"ELEMENT_SET_NO":999,"REV_AT_EPOCH":29112,"BSTAR":-0.00025456865,"MEAN_MOTION_DOT":-7.6e-7,"MEAN_MOTION_DDOT":0},{"OBJECT_NAME":"ONEWEB-0051","OBJECT_ID":"2020-008AA","EPOCH":"2026-02-08T01:37:40.238976","MEAN_MOTION":13.11418203,"ECCENTRICITY":0.00018342,"INCLINATION":87.8827,"RA_OF_ASC_NODE":46.7542,"ARG_OF_PERICENTER":90.183,"MEAN_ANOMALY":269.9508,"EPHEMERIS_TYPE":0,"CLASSIFICATION_TYPE":"U","NORAD_CAT_ID":45155,"ELEMENT_SET_NO":999,"REV_AT_EPOCH":29416,"BSTAR":0.00052702363,"MEAN_MOTION_DOT":1.99e-6,"MEAN_MOTION_DDOT":0},{"OBJECT_NAME":"ONEWEB-0052","OBJECT_ID":"2020-008AB","EPOCH":"2026-02-08T02:20:21.566112","MEAN_MOTION":13.10375168,"ECCENTRICITY":0.00022687,"INCLINATION":87.8761,"RA_OF_ASC_NODE":61.9679,"ARG_OF_PERICENTER":83.6497,"MEAN_ANOMALY":276.4889,"EPHEMERIS_TYPE":0,"CLASSIFICATION_TYPE":"U","NORAD_CAT_ID":45156,"ELEMENT_SET_NO":999,"REV_AT_EPOCH":29103,"BSTAR":-0.0012890714,"MEAN_MOTION_DOT":-4.37e-6,"MEAN_MOTION_DDOT":0},{"OBJECT_NAME":"ONEWEB-0053","OBJECT_ID":"2020-008AC","EPOCH":"2026-02-08T01:55:14.567808","MEAN_MOTION":13.10371148,"ECCENTRICITY":0.00019774,"INCLINATION":87.875,"RA_OF_ASC_NODE":62.0128,"ARG_OF_PERICENTER":76.8311,"MEAN_ANOMALY":283.3037,"EPHEMERIS_TYPE":0,"CLASSIFICATION_TYPE":"U","NORAD_CAT_ID":45157,"ELEMENT_SET_NO":999,"REV_AT_EPOCH":29100,"BSTAR":-0.0016533611,"MEAN_MOTION_DOT":-5.64e-6,"MEAN_MOTION_DDOT":0},{"OBJECT_NAME":"ONEWEB-0054","OBJECT_ID":"2020-008AD","EPOCH":"2026-02-08T02:45:27.792000","MEAN_MOTION":13.10374869,"ECCENTRICITY":0.00019623,"INCLINATION":87.8762,"RA_OF_ASC_NODE":61.9796,"ARG_OF_PERICENTER":92.8854,"MEAN_ANOMALY":267.2498,"EPHEMERIS_TYPE":0,"CLASSIFICATION_TYPE":"U","NORAD_CAT_ID":45158,"ELEMENT_SET_NO":999,"REV_AT_EPOCH":29112,"BSTAR":0.0014307732,"MEAN_MOTION_DOT":5.12e-6,"MEAN_MOTION_DDOT":0},{"OBJECT_NAME":"ONEWEB-0056","OBJECT_ID":"2020-008AE","EPOCH":"2026-02-08T02:17:57.844032","MEAN_MOTION":13.1037458,"ECCENTRICITY":0.0002044,"INCLINATION":87.876,"RA_OF_ASC_NODE":61.9834,"ARG_OF_PERICENTER":92.0846,"MEAN_ANOMALY":268.0515,"EPHEMERIS_TYPE":0,"CLASSIFICATION_TYPE":"U","NORAD_CAT_ID":45159,"ELEMENT_SET_NO":999,"REV_AT_EPOCH":29127,"BSTAR":-0.0013581055,"MEAN_MOTION_DOT":-4.61e-6,"MEAN_MOTION_DDOT":0},{"OBJECT_NAME":"ONEWEB-0057","OBJECT_ID":"2020-008AF","EPOCH":"2026-02-08T02:28:55.189056","MEAN_MOTION":13.10376819,"ECCENTRICITY":0.00019225,"INCLINATION":87.8756,"RA_OF_ASC_NODE":61.9928,"ARG_OF_PERICENTER":86.565,"MEAN_ANOMALY":273.5697,"EPHEMERIS_TYPE":0,"CLASSIFICATION_TYPE":"U","NORAD_CAT_ID":45160,"ELEMENT_SET_NO":999,"REV_AT_EPOCH":29144,"BSTAR":-0.00040915483,"MEAN_MOTION_DOT":-1.3e-6,"MEAN_MOTION_DDOT":0}]
