ONEWEB-0035             
1 45143U 20008N   26039.11574389  .00000490  00000+0  13667-2 0  9992
2 45143  87.8756  62.0001 0001834  95.8302 264.3035 13.10374532291039
ONEWEB-0036             
1 45144U 20008P   26039.10577139  .00000019  00000+0  19061-4 0  9991
2 45144  87.8766  61.9655 0001964  82.9550 277.1801 13.10375623291462
ONEWEB-0038             
1 45145U 20008Q   26039.07474997  .00000429  00000+0  11748-2 0  9993
2 45145  87.8828  46.7520 0000204 139.4200 220.6943 13.11417521293401
ONEWEB-0039             
1 45146U 20008R   26039.08833334 -.00000307  00000+0 -91509-3 0  9990
2 45146  87.8757  61.9865 0001718  77.3708 282.7612 13.10372863291259
ONEWEB-0040             
1 45147U 20008S   26039.08169340 -.00000578  00000+0 -16911-2 0  9993
2 45147  87.8747  62.0075 0001757  94.1228 266.0100 13.10371970290952
ONEWEB-0043             
1 45149U 20008U   26039.08335300 -.00000678  00000+0 -19800-2 0  9997
2 45149  87.8750  61.9891 0001821  73.3868 286.7459 13.10372763291276
ONEWEB-0044             
1 45150U 20008V   26039.11158346  .00000268  00000+0  73200-3 0  9994
2 45150  87.8764  61.9778 0001705  87.3619 272.7704 13.10378569291578
ONEWEB-0045             
1 45151U 20008W   26039.06952696  .00000266  00000+0  71446-3 0  9997
2 45151  87.8830  46.7397 0001757  86.8642 273.2687 13.11419686293483
ONEWEB-0047             
1 45152U 20008X   26039.10494820  .00000018  00000+0  15153-4 0  9992
2 45152  87.8755  61.9842 0001813  92.2263 267.9072 13.10376449291290
ONEWEB-0048             
1 45153U 20008Y   26039.09995265 -.00000269  00000+0 -80682-3 0  9998
2 45153  87.8754  62.0129 0001804  94.6329 265.5004 13.10377124290906
ONEWEB-0049             
1 45154U 20008Z   26039.10314925 -.00000076  00000+0 -25457-3 0  9994
2 45154  87.8751  62.0010 0002256  86.8162 273.3224 13.10376686291121
ONEWEB-0051             
1 45155U 20008AA  26039.06782684  .00000199  00000+0  52702-3 0  9998
2 45155  87.8827  46.7542 0001834  90.1830 269.9508 13.11418203294162
ONEWEB-0052             
1 45156U 20008AB  26039.09747183 -.00000437  00000+0 -12891-2 0  9998
2 45156  87.8761  61.9679 0002268  83.6497 276.4889 13.10375168291037
ONEWEB-0053             
1 45157U 20008AC  26039.08002972 -.00000564  00000+0 -16534-2 0  9997
2 45157  87.8750  62.0128 0001977  76.8311 283.3037 13.10371148291005
ONEWEB-0054             
1 45158U 20008AD  26039.11490500  .00000512  00000+0  14308-2 0  9998
2 45158  87.8762  61.9796 0001962  92.8854 267.2498 13.10374869291120
ONEWEB-0056             
1 45159U 20008AE  26039.09580838 -.00000461  00000+0 -13581-2 0  9997
2 45159  87.8760  61.9834 0002044  92.0846 268.0515 13.10374580291272
ONEWEB-0057             
1 45160U 20008AF  26039.10341654 -.00000130  00000+0 -40915-3 0  9997
2 45160  87.8756  61.9928 0001922  86.5650 273.5697 13.10376819291446
